[{"OBJECT_NAME":"STARLINK-5042","OBJECT_ID":"2022-119P","EPOCH":"2026-03-09T23:48:31.662432","MEAN_MOTION":15.08836566,"ECCENTRICITY":0.00012098,"INCLINATION":53.2187,"RA_OF_ASC_NODE":322.5242,"ARG_OF_PERICENTER":96.2694,"MEAN_ANOMALY":263.8436,"EPHEMERIS_TYPE":0,"CLASSIFICATION_TYPE":"U","NORAD_CAT_ID":53899,"ELEMENT_SET_NO":999,"REV_AT_EPOCH":19173,"BSTAR":-4.44313e-6,"MEAN_MOTION_DOT":-3.59e-6,"MEAN_MOTION_DDOT":0},{"OBJECT_NAME":"CZ-4B DEB","OBJECT_ID":"2004-035K","EPOCH":"2026-03-08T06:51:30.377664","MEAN_MOTION":15.09293825,"ECCENTRICITY":0.00031468,"INCLINATION":97.5843,"RA_OF_ASC_NODE":91.2716,"ARG_OF_PERICENTER":107.6302,"MEAN_ANOMALY":252.527,"EPHEMERIS_TYPE":0,"CLASSIFICATION_TYPE":"U","NORAD_CAT_ID":29043,"ELEMENT_SET_NO":999,"REV_AT_EPOCH":10418,"BSTAR":0.00031897975,"MEAN_MOTION_DOT":5.021e-5,"MEAN_MOTION_DDOT":0}]
